start=new Date('2022-03-27T00:00:00.000Z').valueOf();
sats=[{"INCLINATION":"53.2175","REF_FRAME":"TEME","SITE":"AFWTR","OBJECT_NAME":"STARLINK-3573","EPOCH":"2022-03-26T22:00:00.999936","GP_ID":"199782816","MEAN_MOTION_DDOT":"0.0000000000000","NORAD_CAT_ID":"51794","REV_AT_EPOCH":"372","DECAY_DATE":null,"PERIOD":"92.133","RA_OF_ASC_NODE":"358.9988","MEAN_MOTION_DOT":"-0.00714611","TLE_LINE1":"1 51794U 22017AC  22085.91667824 -.00714611  00000-0 -84445-2 0  9997","ARG_OF_PERICENTER":"78.7465","CENTER_NAME":"EARTH","RCS_SIZE":"LARGE","ECCENTRICITY":"0.00012070","MEAN_ELEMENT_THEORY":"SGP4","ELEMENT_SET_NO":"999","MEAN_MOTION":"15.62953383","LAUNCH_DATE":"2022-02-25","OBJECT_ID":"2022-017AC","TLE_LINE2":"2 51794  53.2175 358.9988 0001207  78.7465  71.4329 15.62953383  3721","CLASSIFICATION_TYPE":"U","TIME_SYSTEM":"UTC","COUNTRY_CODE":"US","FILE":"3375650","BSTAR":"-0.00844450000000","SEMIMAJOR_AXIS":"6757.268","EPHEMERIS_TYPE":"0","APOAPSIS":"379.949","PERIAPSIS":"378.318","OBJECT_TYPE":"PAYLOAD","MEAN_ANOMALY":"71.4329"},{"APOAPSIS":"380.335","PERIAPSIS":"378.668","OBJECT_TYPE":"PAYLOAD","MEAN_ANOMALY":"75.6236","SEMIMAJOR_AXIS":"6757.637","EPHEMERIS_TYPE":"0","FILE":"3375636","BSTAR":"-0.00848730000000","COUNTRY_CODE":"US","CLASSIFICATION_TYPE":"U","TIME_SYSTEM":"UTC","OBJECT_ID":"2022-017AD","LAUNCH_DATE":"2022-02-25","TLE_LINE2":"2 51795  53.2175 359.0001 0001233  70.8131  75.6236 15.62825546  5838","MEAN_MOTION":"15.62825546","ELEMENT_SET_NO":"999","MEAN_ELEMENT_THEORY":"SGP4","ECCENTRICITY":"0.00012330","TLE_LINE1":"1 51795U 22017AD  22085.91667824 -.00714627  00000-0 -84873-2 0  9990","ARG_OF_PERICENTER":"70.8131","CENTER_NAME":"EARTH","RCS_SIZE":"LARGE","NORAD_CAT_ID":"51795","DECAY_DATE":null,"REV_AT_EPOCH":"583","RA_OF_ASC_NODE":"359.0001","PERIOD":"92.141","MEAN_MOTION_DOT":"-0.00714627","OBJECT_NAME":"STARLINK-3586","EPOCH":"2022-03-26T22:00:00.999936","GP_ID":"199757950","MEAN_MOTION_DDOT":"0.0000000000000","INCLINATION":"53.2175","SITE":"AFWTR","REF_FRAME":"TEME"},{"ELEMENT_SET_NO":"999","MEAN_ELEMENT_THEORY":"SGP4","ECCENTRICITY":"0.00015930","MEAN_MOTION":"15.60960809","OBJECT_NAME":"STARLINK-3630","GP_ID":"199783255","EPOCH":"2022-03-26T22:00:00.999936","MEAN_MOTION_DDOT":"0.0000000000000","INCLINATION":"53.2174","REF_FRAME":"TEME","SITE":"AFWTR","TLE_LINE1":"1 51796U 22017AE  22085.91667824 -.00715264  00000-0 -91370-2 0  9999","ARG_OF_PERICENTER":"38.5669","CENTER_NAME":"EARTH","RCS_SIZE":"LARGE","NORAD_CAT_ID":"51796","DECAY_DATE":null,"REV_AT_EPOCH":"370","PERIOD":"92.251","RA_OF_ASC_NODE":"358.9926","MEAN_MOTION_DOT":"-0.00715264","SEMIMAJOR_AXIS":"6763.017","EPHEMERIS_TYPE":"0","BSTAR":"-0.00913700000000","FILE":"3375650","APOAPSIS":"385.960","PERIAPSIS":"383.805","OBJECT_TYPE":"PAYLOAD","MEAN_ANOMALY":"60.7540","LAUNCH_DATE":"2022-02-25","OBJECT_ID":"2022-017AE","TLE_LINE2":"2 51796  53.2174 358.9926 0001593  38.5669  60.7540 15.60960809  3705","COUNTRY_CODE":"US","CLASSIFICATION_TYPE":"U","TIME_SYSTEM":"UTC"},{"APOAPSIS":"381.064","PERIAPSIS":"379.413","OBJECT_TYPE":"PAYLOAD","MEAN_ANOMALY":"70.5952","SEMIMAJOR_AXIS":"6758.373","EPHEMERIS_TYPE":"0","BSTAR":"-0.00857530000000","FILE":"3375650","COUNTRY_CODE":"US","CLASSIFICATION_TYPE":"U","TIME_SYSTEM":"UTC","OBJECT_ID":"2022-017AF","LAUNCH_DATE":"2022-02-25","TLE_LINE2":"2 51797  53.2175 359.0028 0001222  68.2406  70.5952 15.62570026  3706","MEAN_MOTION":"15.62570026","ELEMENT_SET_NO":"999","ECCENTRICITY":"0.00012220","MEAN_ELEMENT_THEORY":"SGP4","TLE_LINE1":"1 51797U 22017AF  22085.91667824 -.00714796  00000-0 -85753-2 0  9997","ARG_OF_PERICENTER":"68.2406","CENTER_NAME":"EARTH","RCS_SIZE":"LARGE","NORAD_CAT_ID":"51797","REV_AT_EPOCH":"370","DECAY_DATE":null,"MEAN_MOTION_DOT":"-0.00714796","PERIOD":"92.156","RA_OF_ASC_NODE":"359.0028","OBJECT_NAME":"STARLINK-3627","EPOCH":"2022-03-26T22:00:00.999936","GP_ID":"199783035","MEAN_MOTION_DDOT":"0.0000000000000","INCLINATION":"53.2175","REF_FRAME":"TEME","SITE":"AFWTR"},{"ARG_OF_PERICENTER":"41.3121","TLE_LINE1":"1 51798U 22017AG  22085.91667824 -.00715263  00000-0 -90919-2 0  9998","RCS_SIZE":"LARGE","CENTER_NAME":"EARTH","NORAD_CAT_ID":"51798","RA_OF_ASC_NODE":"358.9922","PERIOD":"92.243","MEAN_MOTION_DOT":"-0.00715263","REV_AT_EPOCH":"370","DECAY_DATE":null,"GP_ID":"199783145","EPOCH":"2022-03-26T22:00:00.999936","OBJECT_NAME":"STARLINK-3634","MEAN_MOTION_DDOT":"0.0000000000000","SITE":"AFWTR","REF_FRAME":"TEME","INCLINATION":"53.2174","MEAN_MOTION":"15.61088631","ELEMENT_SET_NO":"999","MEAN_ELEMENT_THEORY":"SGP4","ECCENTRICITY":"0.00015420","COUNTRY_CODE":"US","CLASSIFICATION_TYPE":"U","TIME_SYSTEM":"UTC","TLE_LINE2":"2 51798  53.2174 358.9922 0001542  41.3121  62.3119 15.61088631  3707","OBJECT_ID":"2022-017AG","LAUNCH_DATE":"2022-02-25","OBJECT_TYPE":"PAYLOAD","PERIAPSIS":"383.470","APOAPSIS":"385.556","MEAN_ANOMALY":"62.3119","EPHEMERIS_TYPE":"0","SEMIMAJOR_AXIS":"6762.648","FILE":"3375650","BSTAR":"-0.00909190000000"},{"RCS_SIZE":"LARGE","CENTER_NAME":"EARTH","ARG_OF_PERICENTER":"61.6924","TLE_LINE1":"1 51799U 22017AH  22085.91667824 -.00714375  00000-0 -83988-2 0  9990","RA_OF_ASC_NODE":"358.9972","PERIOD":"92.126","MEAN_MOTION_DOT":"-0.00714375","DECAY_DATE":null,"REV_AT_EPOCH":"370","NORAD_CAT_ID":"51799","MEAN_MOTION_DDOT":"0.0000000000000","GP_ID":"199783475","EPOCH":"2022-03-26T22:00:00.999936","OBJECT_NAME":"STARLINK-3637","SITE":"AFWTR","REF_FRAME":"TEME","INCLINATION":"53.2175","MEAN_MOTION":"15.63081008","ELEMENT_SET_NO":"999","MEAN_ELEMENT_THEORY":"SGP4","ECCENTRICITY":"0.00013120","COUNTRY_CODE":"US","TIME_SYSTEM":"UTC","CLASSIFICATION_TYPE":"U","TLE_LINE2":"2 51799  53.2175 358.9972 0001312  61.6924  92.1915 15.63081008  3703","OBJECT_ID":"2022-017AH","LAUNCH_DATE":"2022-02-25","MEAN_ANOMALY":"92.1915","OBJECT_TYPE":"PAYLOAD","APOAPSIS":"379.652","PERIAPSIS":"377.879","EPHEMERIS_TYPE":"0","SEMIMAJOR_AXIS":"6756.900","FILE":"3375650","BSTAR":"-0.00839880000000"},{"EPHEMERIS_TYPE":"0","SEMIMAJOR_AXIS":"6762.009","BSTAR":"-0.00901360000000","FILE":"3375650","MEAN_ANOMALY":"54.4799","OBJECT_TYPE":"PAYLOAD","PERIAPSIS":"383.005","APOAPSIS":"384.744","TLE_LINE2":"2 51800  53.2174 358.9913 0001286  56.6757  54.4799 15.61309878  3705","OBJECT_ID":"2022-017AJ","LAUNCH_DATE":"2022-02-25","COUNTRY_CODE":"US","TIME_SYSTEM":"UTC","CLASSIFICATION_TYPE":"U","ELEMENT_SET_NO":"999","MEAN_ELEMENT_THEORY":"SGP4","ECCENTRICITY":"0.00012860","MEAN_MOTION":"15.61309878","MEAN_MOTION_DDOT":"0.0000000000000","GP_ID":"199782926","EPOCH":"2022-03-26T22:00:00.999936","OBJECT_NAME":"STARLINK-3600","SITE":"AFWTR","REF_FRAME":"TEME","INCLINATION":"53.2174","RCS_SIZE":"LARGE","CENTER_NAME":"EARTH","ARG_OF_PERICENTER":"56.6757","TLE_LINE1":"1 51800U 22017AJ  22085.91667824 -.00715180  00000-0 -90136-2 0  9991","PERIOD":"92.230","MEAN_MOTION_DOT":"-0.00715180","RA_OF_ASC_NODE":"358.9913","DECAY_DATE":null,"REV_AT_EPOCH":"370","NORAD_CAT_ID":"51800"},{"MEAN_MOTION":"15.60833103","MEAN_ELEMENT_THEORY":"SGP4","ECCENTRICITY":"0.00015060","ELEMENT_SET_NO":"999","DECAY_DATE":null,"REV_AT_EPOCH":"370","PERIOD":"92.258","RA_OF_ASC_NODE":"358.9928","MEAN_MOTION_DOT":"-0.00715436","NORAD_CAT_ID":"51801","CENTER_NAME":"EARTH","RCS_SIZE":"LARGE","TLE_LINE1":"1 51801U 22017AK  22085.91667824 -.00715436  00000-0 -91850-2 0  9990","ARG_OF_PERICENTER":"40.9699","INCLINATION":"53.2174","SITE":"AFWTR","REF_FRAME":"TEME","MEAN_MOTION_DDOT":"0.0000000000000","OBJECT_NAME":"STARLINK-3592","GP_ID":"199782707","EPOCH":"2022-03-26T22:00:00.999936","MEAN_ANOMALY":"54.0093","PERIAPSIS":"384.233","APOAPSIS":"386.270","OBJECT_TYPE":"PAYLOAD","FILE":"3375650","BSTAR":"-0.00918500000000","SEMIMAJOR_AXIS":"6763.386","EPHEMERIS_TYPE":"0","TIME_SYSTEM":"UTC","CLASSIFICATION_TYPE":"U","COUNTRY_CODE":"US","OBJECT_ID":"2022-017AK","LAUNCH_DATE":"2022-02-25","TLE_LINE2":"2 51801  53.2174 358.9928 0001506  40.9699  54.0093 15.60833103  3703"},{"MEAN_MOTION_DDOT":"0.0000000000000","GP_ID":"199782817","EPOCH":"2022-03-26T22:00:00.999936","OBJECT_NAME":"STARLINK-3557","REF_FRAME":"TEME","SITE":"AFWTR","INCLINATION":"53.2175","RCS_SIZE":"LARGE","CENTER_NAME":"EARTH","ARG_OF_PERICENTER":"78.4572","TLE_LINE1":"1 51802U 22017AL  22085.91667824 -.00714697  00000-0 -86013-2 0  9994","PERIOD":"92.161","RA_OF_ASC_NODE":"358.9911","MEAN_MOTION_DOT":"-0.00714697","REV_AT_EPOCH":"370","DECAY_DATE":null,"NORAD_CAT_ID":"51802","ELEMENT_SET_NO":"999","ECCENTRICITY":"0.00011970","MEAN_ELEMENT_THEORY":"SGP4","MEAN_MOTION":"15.62489365","TLE_LINE2":"2 51802  53.2175 358.9911 0001197  78.4572  65.3759 15.62489365  3702","OBJECT_ID":"2022-017AL","LAUNCH_DATE":"2022-02-25","COUNTRY_CODE":"US","TIME_SYSTEM":"UTC","CLASSIFICATION_TYPE":"U","EPHEMERIS_TYPE":"0","SEMIMAJOR_AXIS":"6758.606","FILE":"3375650","BSTAR":"-0.00860130000000","MEAN_ANOMALY":"65.3759","OBJECT_TYPE":"PAYLOAD","APOAPSIS":"381.280","PERIAPSIS":"379.662"},{"FILE":"3375650","BSTAR":"-0.00904760000000","SEMIMAJOR_AXIS":"6762.279","EPHEMERIS_TYPE":"0","MEAN_ANOMALY":"57.8510","APOAPSIS":"385.077","PERIAPSIS":"383.211","OBJECT_TYPE":"PAYLOAD","LAUNCH_DATE":"2022-02-25","OBJECT_ID":"2022-017AM","TLE_LINE2":"2 51803  53.2174 358.9918 0001380  50.0378  57.8510 15.61216445  3700","TIME_SYSTEM":"UTC","CLASSIFICATION_TYPE":"U","COUNTRY_CODE":"US","MEAN_ELEMENT_THEORY":"SGP4","ECCENTRICITY":"0.00013800","ELEMENT_SET_NO":"999","MEAN_MOTION":"15.61216445","INCLINATION":"53.2174","SITE":"AFWTR","REF_FRAME":"TEME","MEAN_MOTION_DDOT":"0.0000000000000","OBJECT_NAME":"STARLINK-3544","GP_ID":"199783366","EPOCH":"2022-03-26T22:00:00.999936","DECAY_DATE":null,"REV_AT_EPOCH":"370","PERIOD":"92.236","MEAN_MOTION_DOT":"-0.00715285","RA_OF_ASC_NODE":"358.9918","NORAD_CAT_ID":"51803","CENTER_NAME":"EARTH","RCS_SIZE":"LARGE","TLE_LINE1":"1 51803U 22017AM  22085.91667824 -.00715285  00000-0 -90476-2 0  9997","ARG_OF_PERICENTER":"50.0378"}];
